[
    {
        "CCSDS_OMM_VERS": "3.0",
        "COMMENT": "GENERATED VIA SPACE-TRACK.ORG API",
        "CREATION_DATE": "2025-05-04T02:26:54",
        "ORIGINATOR": "18 SPCS",
        "OBJECT_NAME": "BEIDOU 15",
        "OBJECT_ID": "2012-050B",
        "CENTER_NAME": "EARTH",
        "REF_FRAME": "TEME",
        "TIME_SYSTEM": "UTC",
        "MEAN_ELEMENT_THEORY": "SGP4",
        "EPOCH": "2025-05-03T03:12:47.892096",
        "MEAN_MOTION": "1.86230998",
        "ECCENTRICITY": "0.00146140",
        "INCLINATION": "56.1842",
        "RA_OF_ASC_NODE": "76.4913",
        "ARG_OF_PERICENTER": "341.9197",
        "MEAN_ANOMALY": "17.9972",
        "EPHEMERIS_TYPE": "0",
        "CLASSIFICATION_TYPE": "U",
        "NORAD_CAT_ID": "38775",
        "ELEMENT_SET_NO": "999",
        "REV_AT_EPOCH": "8567",
        "BSTAR": "0.00000000000000",
        "MEAN_MOTION_DOT": "-0.00000014",
        "MEAN_MOTION_DDOT": "0.0000000000000",
        "SEMIMAJOR_AXIS": "27906.189",
        "PERIOD": "773.233",
        "APOAPSIS": "21568.836",
        "PERIAPSIS": "21487.272",
        "OBJECT_TYPE": "PAYLOAD",
        "RCS_SIZE": "LARGE",
        "COUNTRY_CODE": "PRC",
        "LAUNCH_DATE": "2012-09-18",
        "SITE": "XSC",
        "DECAY_DATE": null,
        "FILE": "4718307",
        "GP_ID": "286796247",
        "TLE_LINE0": "0 BEIDOU 15",
        "TLE_LINE1": "1 38775U 12050B   25123.13388764 -.00000014  00000-0  00000-0 0  9997",
        "TLE_LINE2": "2 38775  56.1842  76.4913 0014614 341.9197  17.9972  1.86230998 85675"
    }
]